[{"OBJECT_NAME":"FLOCK 4Q-9","OBJECT_ID":"2023-174BU","EPOCH":"2026-03-28T19:10:44.907168","MEAN_MOTION":15.45726651,"ECCENTRICITY":0.0007427,"INCLINATION":97.3881,"RA_OF_ASC_NODE":174.5907,"ARG_OF_PERICENTER":83.2269,"MEAN_ANOMALY":276.9825,"EPHEMERIS_TYPE":0,"CLASSIFICATION_TYPE":"U","NORAD_CAT_ID":58322,"ELEMENT_SET_NO":999,"REV_AT_EPOCH":13315,"BSTAR":0.0006562,"MEAN_MOTION_DOT":0.00031738,"MEAN_MOTION_DDOT":0},{"OBJECT_NAME":"FLOCK 4Q-4","OBJECT_ID":"2023-174BZ","EPOCH":"2026-03-28T16:14:52.355040","MEAN_MOTION":15.4518639,"ECCENTRICITY":0.0007578,"INCLINATION":97.3838,"RA_OF_ASC_NODE":173.8149,"ARG_OF_PERICENTER":100.7475,"MEAN_ANOMALY":259.4628,"EPHEMERIS_TYPE":0,"CLASSIFICATION_TYPE":"U","NORAD_CAT_ID":58327,"ELEMENT_SET_NO":999,"REV_AT_EPOCH":13311,"BSTAR":0.00057997,"MEAN_MOTION_DOT":0.00027515,"MEAN_MOTION_DDOT":0},{"OBJECT_NAME":"FLOCK 4Q-13","OBJECT_ID":"2023-174CA","EPOCH":"2026-03-28T19:21:14.329440","MEAN_MOTION":15.4804883,"ECCENTRICITY":0.0007487,"INCLINATION":97.4001,"RA_OF_ASC_NODE":176.491,"ARG_OF_PERICENTER":90.9432,"MEAN_ANOMALY":269.2677,"EPHEMERIS_TYPE":0,"CLASSIFICATION_TYPE":"U","NORAD_CAT_ID":58328,"ELEMENT_SET_NO":999,"REV_AT_EPOCH":13322,"BSTAR":0.00058598,"MEAN_MOTION_DOT":0.00030689,"MEAN_MOTION_DDOT":0},{"OBJECT_NAME":"FLOCK 4BE-18","OBJECT_ID":"2024-149N","EPOCH":"2026-03-28T19:07:40.388736","MEAN_MOTION":15.39100499,"ECCENTRICITY":0.0004656,"INCLINATION":97.3753,"RA_OF_ASC_NODE":170.8433,"ARG_OF_PERICENTER":170.138,"MEAN_ANOMALY":189.9958,"EPHEMERIS_TYPE":0,"CLASSIFICATION_TYPE":"U","NORAD_CAT_ID":60480,"ELEMENT_SET_NO":999,"REV_AT_EPOCH":8993,"BSTAR":0.0006137,"MEAN_MOTION_DOT":0.00023744,"MEAN_MOTION_DDOT":0},{"OBJECT_NAME":"FLOCK 4BE-7","OBJECT_ID":"2024-149P","EPOCH":"2026-03-28T18:31:32.701728","MEAN_MOTION":15.37026702,"ECCENTRICITY":0.0003834,"INCLINATION":97.3778,"RA_OF_ASC_NODE":170.3532,"ARG_OF_PERICENTER":168.1451,"MEAN_ANOMALY":191.9884,"EPHEMERIS_TYPE":0,"CLASSIFICATION_TYPE":"U","NORAD_CAT_ID":60481,"ELEMENT_SET_NO":999,"REV_AT_EPOCH":8988,"BSTAR":0.00069161,"MEAN_MOTION_DOT":0.00025028,"MEAN_MOTION_DDOT":0},{"OBJECT_NAME":"FLOCK 4BE-26","OBJECT_ID":"2024-149S","EPOCH":"2026-03-28T17:13:23.867040","MEAN_MOTION":15.48264581,"ECCENTRICITY":0.0006399,"INCLINATION":97.3727,"RA_OF_ASC_NODE":170.9014,"ARG_OF_PERICENTER":193.328,"MEAN_ANOMALY":166.7803,"EPHEMERIS_TYPE":0,"CLASSIFICATION_TYPE":"U","NORAD_CAT_ID":60484,"ELEMENT_SET_NO":999,"REV_AT_EPOCH":8993,"BSTAR":0.0024771,"MEAN_MOTION_DOT":0.00132669,"MEAN_MOTION_DDOT":0},{"OBJECT_NAME":"FLOCK 4BE-36","OBJECT_ID":"2024-149U","EPOCH":"2026-03-28T18:00:07.985952","MEAN_MOTION":15.39998573,"ECCENTRICITY":0.0004276,"INCLINATION":97.3758,"RA_OF_ASC_NODE":171.3703,"ARG_OF_PERICENTER":179.4869,"MEAN_ANOMALY":180.6382,"EPHEMERIS_TYPE":0,"CLASSIFICATION_TYPE":"U","NORAD_CAT_ID":60486,"ELEMENT_SET_NO":999,"REV_AT_EPOCH":8996,"BSTAR":0.00062815,"MEAN_MOTION_DOT":0.00025034,"MEAN_MOTION_DDOT":0},{"OBJECT_NAME":"FLOCK 4BE-25","OBJECT_ID":"2024-149V","EPOCH":"2026-03-28T18:57:13.453920","MEAN_MOTION":15.36626776,"ECCENTRICITY":0.0003181,"INCLINATION":97.3819,"RA_OF_ASC_NODE":170.5208,"ARG_OF_PERICENTER":159.4577,"MEAN_ANOMALY":200.6795,"EPHEMERIS_TYPE":0,"CLASSIFICATION_TYPE":"U","NORAD_CAT_ID":60487,"ELEMENT_SET_NO":999,"REV_AT_EPOCH":8988,"BSTAR":0.00051918,"MEAN_MOTION_DOT":0.00018511,"MEAN_MOTION_DDOT":0},{"OBJECT_NAME":"FLOCK 4BE-31","OBJECT_ID":"2024-149W","EPOCH":"2026-03-28T18:34:08.900832","MEAN_MOTION":15.40862511,"ECCENTRICITY":0.000332,"INCLINATION":97.3817,"RA_OF_ASC_NODE":172.0555,"ARG_OF_PERICENTER":173.258,"MEAN_ANOMALY":186.8712,"EPHEMERIS_TYPE":0,"CLASSIFICATION_TYPE":"U","NORAD_CAT_ID":60488,"ELEMENT_SET_NO":999,"REV_AT_EPOCH":8998,"BSTAR":0.00066151,"MEAN_MOTION_DOT":0.00027133,"MEAN_MOTION_DDOT":0},{"OBJECT_NAME":"FLOCK 4BE-20","OBJECT_ID":"2024-149X","EPOCH":"2026-03-28T18:39:20.602656","MEAN_MOTION":15.35853114,"ECCENTRICITY":0.0004408,"INCLINATION":97.3722,"RA_OF_ASC_NODE":169.5907,"ARG_OF_PERICENTER":172.5803,"MEAN_ANOMALY":187.5507,"EPHEMERIS_TYPE":0,"CLASSIFICATION_TYPE":"U","NORAD_CAT_ID":60489,"ELEMENT_SET_NO":999,"REV_AT_EPOCH":8986,"BSTAR":0.00048964,"MEAN_MOTION_DOT":0.00017024,"MEAN_MOTION_DDOT":0},{"OBJECT_NAME":"FLOCK 4BE-23","OBJECT_ID":"2024-149Y","EPOCH":"2026-03-28T17:57:50.863968","MEAN_MOTION":15.35490748,"ECCENTRICITY":0.0003921,"INCLINATION":97.3802,"RA_OF_ASC_NODE":169.8936,"ARG_OF_PERICENTER":179.6236,"MEAN_ANOMALY":180.5011,"EPHEMERIS_TYPE":0,"CLASSIFICATION_TYPE":"U","NORAD_CAT_ID":60490,"ELEMENT_SET_NO":999,"REV_AT_EPOCH":8984,"BSTAR":0.00046465,"MEAN_MOTION_DOT":0.00015962,"MEAN_MOTION_DDOT":0},{"OBJECT_NAME":"FLOCK 4BE-15","OBJECT_ID":"2024-149Z","EPOCH":"2026-03-28T18:56:01.685760","MEAN_MOTION":15.4359616,"ECCENTRICITY":0.0004889,"INCLINATION":97.3735,"RA_OF_ASC_NODE":171.1683,"ARG_OF_PERICENTER":238.6768,"MEAN_ANOMALY":121.4002,"EPHEMERIS_TYPE":0,"CLASSIFICATION_TYPE":"U","NORAD_CAT_ID":60491,"ELEMENT_SET_NO":999,"REV_AT_EPOCH":8996,"BSTAR":0.0022493,"MEAN_MOTION_DOT":0.00102282,"MEAN_MOTION_DDOT":0},{"OBJECT_NAME":"FLOCK 4BE-17","OBJECT_ID":"2024-149AA","EPOCH":"2026-03-28T18:29:18.677184","MEAN_MOTION":15.37316241,"ECCENTRICITY":0.0003913,"INCLINATION":97.3797,"RA_OF_ASC_NODE":170.6459,"ARG_OF_PERICENTER":168.1795,"MEAN_ANOMALY":191.9542,"EPHEMERIS_TYPE":0,"CLASSIFICATION_TYPE":"U","NORAD_CAT_ID":60492,"ELEMENT_SET_NO":999,"REV_AT_EPOCH":8989,"BSTAR":0.00054057,"MEAN_MOTION_DOT":0.00019715,"MEAN_MOTION_DDOT":0},{"OBJECT_NAME":"FLOCK 4BE-22","OBJECT_ID":"2024-149AC","EPOCH":"2026-03-28T18:08:50.578080","MEAN_MOTION":15.38534276,"ECCENTRICITY":0.0004131,"INCLINATION":97.3753,"RA_OF_ASC_NODE":170.7055,"ARG_OF_PERICENTER":180.7315,"MEAN_ANOMALY":179.3925,"EPHEMERIS_TYPE":0,"CLASSIFICATION_TYPE":"U","NORAD_CAT_ID":60494,"ELEMENT_SET_NO":999,"REV_AT_EPOCH":8992,"BSTAR":0.00058054,"MEAN_MOTION_DOT":0.00022039,"MEAN_MOTION_DDOT":0},{"OBJECT_NAME":"FLOCK 4BE-34","OBJECT_ID":"2024-149AD","EPOCH":"2026-03-28T18:37:32.503296","MEAN_MOTION":15.38646124,"ECCENTRICITY":0.0004144,"INCLINATION":97.38,"RA_OF_ASC_NODE":171.4911,"ARG_OF_PERICENTER":184.377,"MEAN_ANOMALY":175.7439,"EPHEMERIS_TYPE":0,"CLASSIFICATION_TYPE":"U","NORAD_CAT_ID":60495,"ELEMENT_SET_NO":999,"REV_AT_EPOCH":8995,"BSTAR":0.00053422,"MEAN_MOTION_DOT":0.00020344,"MEAN_MOTION_DDOT":0},{"OBJECT_NAME":"FLOCK 4BE-32","OBJECT_ID":"2024-149AF","EPOCH":"2026-03-28T18:53:04.907040","MEAN_MOTION":15.39316746,"ECCENTRICITY":0.0004229,"INCLINATION":97.3743,"RA_OF_ASC_NODE":171.0106,"ARG_OF_PERICENTER":183.3043,"MEAN_ANOMALY":176.8175,"EPHEMERIS_TYPE":0,"CLASSIFICATION_TYPE":"U","NORAD_CAT_ID":60497,"ELEMENT_SET_NO":999,"REV_AT_EPOCH":8995,"BSTAR":0.00059109,"MEAN_MOTION_DOT":0.00023025,"MEAN_MOTION_DDOT":0}]
