FLOCK 4Q-9              
1 58322U 23174BU  26087.79913087  .00031738  00000+0  65620-3 0  9997
2 58322  97.3881 174.5907 0007427  83.2269 276.9825 15.45726651133155
FLOCK 4Q-4              
1 58327U 23174BZ  26087.67699485  .00027515  00000+0  57997-3 0  9998
2 58327  97.3838 173.8149 0007578 100.7475 259.4628 15.45186390133116
FLOCK 4Q-13             
1 58328U 23174CA  26087.80641585  .00030689  00000+0  58598-3 0  9996
2 58328  97.4001 176.4910 0007487  90.9432 269.2677 15.48048830133221
FLOCK 4BE-18            
1 60480U 24149N   26087.79699524  .00023744  00000+0  61370-3 0  9991
2 60480  97.3753 170.8433 0004656 170.1380 189.9958 15.39100499 89930
FLOCK 4BE-7             
1 60481U 24149P   26087.77190627  .00025028  00000+0  69161-3 0  9993
2 60481  97.3778 170.3532 0003834 168.1451 191.9884 15.37026702 89883
FLOCK 4BE-26            
1 60484U 24149S   26087.71763735  .00132669  00000+0  24771-2 0  9993
2 60484  97.3727 170.9014 0006399 193.3280 166.7803 15.48264581 89938
FLOCK 4BE-36            
1 60486U 24149U   26087.75009243  .00025034  00000+0  62815-3 0  9995
2 60486  97.3758 171.3703 0004276 179.4869 180.6382 15.39998573 89969
FLOCK 4BE-25            
1 60487U 24149V   26087.78973905  .00018511  00000+0  51918-3 0  9998
2 60487  97.3819 170.5208 0003181 159.4577 200.6795 15.36626776 89889
FLOCK 4BE-31            
1 60488U 24149W   26087.77371413  .00027133  00000+0  66151-3 0  9999
2 60488  97.3817 172.0555 0003320 173.2580 186.8712 15.40862511 89982
FLOCK 4BE-20            
1 60489U 24149X   26087.77732179  .00017024  00000+0  48964-3 0  9990
2 60489  97.3722 169.5907 0004408 172.5803 187.5507 15.35853114 89868
FLOCK 4BE-23            
1 60490U 24149Y   26087.74850537  .00015962  00000+0  46465-3 0  9991
2 60490  97.3802 169.8936 0003921 179.6236 180.5011 15.35490748 89842
FLOCK 4BE-15            
1 60491U 24149Z   26087.78890840  .00102282  00000+0  22493-2 0  9993
2 60491  97.3735 171.1683 0004889 238.6768 121.4002 15.43596160 89964
FLOCK 4BE-17            
1 60492U 24149AA  26087.77035506  .00019715  00000+0  54057-3 0  9993
2 60492  97.3797 170.6459 0003913 168.1795 191.9542 15.37316241 89898
FLOCK 4BE-22            
1 60494U 24149AC  26087.75614095  .00022039  00000+0  58054-3 0  9993
2 60494  97.3753 170.7055 0004131 180.7315 179.3925 15.38534276 89926
FLOCK 4BE-34            
1 60495U 24149AD  26087.77607064  .00020344  00000+0  53422-3 0  9995
2 60495  97.3800 171.4911 0004144 184.3770 175.7439 15.38646124 89957
FLOCK 4BE-32            
1 60497U 24149AF  26087.78686235  .00023025  00000+0  59109-3 0  9992
2 60497  97.3743 171.0106 0004229 183.3043 176.8175 15.39316746 89957
